<?xml version="1.0" encoding="UTF-8"?>
<ndm xmlns:xsi="http://www.w3.org/2001/XMLSchema-instance" xsi:noNamespaceSchemaLocation="https://sanaregistry.org/r/ndmxml_unqualified/ndmxml-2.0.0-master-2.0.xsd">
<omm id="CCSDS_OMM_VERS" version="2.0">
<header><CREATION_DATE/><ORIGINATOR/></header><body><segment><metadata><OBJECT_NAME>ONEWEB-0118</OBJECT_NAME><OBJECT_ID>2020-100G</OBJECT_ID><CENTER_NAME>EARTH</CENTER_NAME><REF_FRAME>TEME</REF_FRAME><TIME_SYSTEM>UTC</TIME_SYSTEM><MEAN_ELEMENT_THEORY>SGP4</MEAN_ELEMENT_THEORY></metadata><data><meanElements><EPOCH>2023-11-09T21:10:55.799328</EPOCH><MEAN_MOTION>13.12441881</MEAN_MOTION><ECCENTRICITY>.0001868</ECCENTRICITY><INCLINATION>87.9036</INCLINATION><RA_OF_ASC_NODE>179.6284</RA_OF_ASC_NODE><ARG_OF_PERICENTER>97.5835</ARG_OF_PERICENTER><MEAN_ANOMALY>262.5505</MEAN_ANOMALY></meanElements><tleParameters><EPHEMERIS_TYPE>0</EPHEMERIS_TYPE><CLASSIFICATION_TYPE>U</CLASSIFICATION_TYPE><NORAD_CAT_ID>47264</NORAD_CAT_ID><ELEMENT_SET_NO>999</ELEMENT_SET_NO><REV_AT_EPOCH>14007</REV_AT_EPOCH><BSTAR>-.75738E-3</BSTAR><MEAN_MOTION_DOT>-.26E-5</MEAN_MOTION_DOT><MEAN_MOTION_DDOT>0</MEAN_MOTION_DDOT></tleParameters></data></segment></body></omm>
<omm id="CCSDS_OMM_VERS" version="2.0">
<header><CREATION_DATE/><ORIGINATOR/></header><body><segment><metadata><OBJECT_NAME>ONEWEB-0119</OBJECT_NAME><OBJECT_ID>2020-100H</OBJECT_ID><CENTER_NAME>EARTH</CENTER_NAME><REF_FRAME>TEME</REF_FRAME><TIME_SYSTEM>UTC</TIME_SYSTEM><MEAN_ELEMENT_THEORY>SGP4</MEAN_ELEMENT_THEORY></metadata><data><meanElements><EPOCH>2023-11-09T21:50:35.111904</EPOCH><MEAN_MOTION>13.12443954</MEAN_MOTION><ECCENTRICITY>.0001492</ECCENTRICITY><INCLINATION>87.9033</INCLINATION><RA_OF_ASC_NODE>179.6605</RA_OF_ASC_NODE><ARG_OF_PERICENTER>75.8002</ARG_OF_PERICENTER><MEAN_ANOMALY>284.3292</MEAN_ANOMALY></meanElements><tleParameters><EPHEMERIS_TYPE>0</EPHEMERIS_TYPE><CLASSIFICATION_TYPE>U</CLASSIFICATION_TYPE><NORAD_CAT_ID>47265</NORAD_CAT_ID><ELEMENT_SET_NO>999</ELEMENT_SET_NO><REV_AT_EPOCH>14005</REV_AT_EPOCH><BSTAR>.113E-2</BSTAR><MEAN_MOTION_DOT>.419E-5</MEAN_MOTION_DOT><MEAN_MOTION_DDOT>0</MEAN_MOTION_DDOT></tleParameters></data></segment></body></omm>
<omm id="CCSDS_OMM_VERS" version="2.0">
<header><CREATION_DATE/><ORIGINATOR/></header><body><segment><metadata><OBJECT_NAME>ONEWEB-0120</OBJECT_NAME><OBJECT_ID>2020-100J</OBJECT_ID><CENTER_NAME>EARTH</CENTER_NAME><REF_FRAME>TEME</REF_FRAME><TIME_SYSTEM>UTC</TIME_SYSTEM><MEAN_ELEMENT_THEORY>SGP4</MEAN_ELEMENT_THEORY></metadata><data><meanElements><EPOCH>2023-11-09T20:45:01.735488</EPOCH><MEAN_MOTION>13.12448475</MEAN_MOTION><ECCENTRICITY>.0001729</ECCENTRICITY><INCLINATION>87.9037</INCLINATION><RA_OF_ASC_NODE>179.6592</RA_OF_ASC_NODE><ARG_OF_PERICENTER>84.2027</ARG_OF_PERICENTER><MEAN_ANOMALY>275.9298</MEAN_ANOMALY></meanElements><tleParameters><EPHEMERIS_TYPE>0</EPHEMERIS_TYPE><CLASSIFICATION_TYPE>U</CLASSIFICATION_TYPE><NORAD_CAT_ID>47266</NORAD_CAT_ID><ELEMENT_SET_NO>999</ELEMENT_SET_NO><REV_AT_EPOCH>14007</REV_AT_EPOCH><BSTAR>-.23047E-2</BSTAR><MEAN_MOTION_DOT>-.816E-5</MEAN_MOTION_DOT><MEAN_MOTION_DDOT>0</MEAN_MOTION_DDOT></tleParameters></data></segment></body></omm>
<omm id="CCSDS_OMM_VERS" version="2.0">
<header><CREATION_DATE/><ORIGINATOR/></header><body><segment><metadata><OBJECT_NAME>ONEWEB-0121</OBJECT_NAME><OBJECT_ID>2020-100K</OBJECT_ID><CENTER_NAME>EARTH</CENTER_NAME><REF_FRAME>TEME</REF_FRAME><TIME_SYSTEM>UTC</TIME_SYSTEM><MEAN_ELEMENT_THEORY>SGP4</MEAN_ELEMENT_THEORY></metadata><data><meanElements><EPOCH>2023-11-09T22:08:53.224800</EPOCH><MEAN_MOTION>13.12443396</MEAN_MOTION><ECCENTRICITY>.0001519</ECCENTRICITY><INCLINATION>87.9033</INCLINATION><RA_OF_ASC_NODE>179.6475</RA_OF_ASC_NODE><ARG_OF_PERICENTER>71.1113</ARG_OF_PERICENTER><MEAN_ANOMALY>289.0180</MEAN_ANOMALY></meanElements><tleParameters><EPHEMERIS_TYPE>0</EPHEMERIS_TYPE><CLASSIFICATION_TYPE>U</CLASSIFICATION_TYPE><NORAD_CAT_ID>47267</NORAD_CAT_ID><ELEMENT_SET_NO>999</ELEMENT_SET_NO><REV_AT_EPOCH>13999</REV_AT_EPOCH><BSTAR>.69042E-3</BSTAR><MEAN_MOTION_DOT>.261E-5</MEAN_MOTION_DOT><MEAN_MOTION_DDOT>0</MEAN_MOTION_DDOT></tleParameters></data></segment></body></omm>
<omm id="CCSDS_OMM_VERS" version="2.0">
<header><CREATION_DATE/><ORIGINATOR/></header><body><segment><metadata><OBJECT_NAME>ONEWEB-0122</OBJECT_NAME><OBJECT_ID>2020-100L</OBJECT_ID><CENTER_NAME>EARTH</CENTER_NAME><REF_FRAME>TEME</REF_FRAME><TIME_SYSTEM>UTC</TIME_SYSTEM><MEAN_ELEMENT_THEORY>SGP4</MEAN_ELEMENT_THEORY></metadata><data><meanElements><EPOCH>2023-11-09T21:59:44.017152</EPOCH><MEAN_MOTION>13.12454866</MEAN_MOTION><ECCENTRICITY>.0001731</ECCENTRICITY><INCLINATION>87.9040</INCLINATION><RA_OF_ASC_NODE>179.6529</RA_OF_ASC_NODE><ARG_OF_PERICENTER>78.5267</ARG_OF_PERICENTER><MEAN_ANOMALY>281.6056</MEAN_ANOMALY></meanElements><tleParameters><EPHEMERIS_TYPE>0</EPHEMERIS_TYPE><CLASSIFICATION_TYPE>U</CLASSIFICATION_TYPE><NORAD_CAT_ID>47268</NORAD_CAT_ID><ELEMENT_SET_NO>999</ELEMENT_SET_NO><REV_AT_EPOCH>13990</REV_AT_EPOCH><BSTAR>-.57343E-2</BSTAR><MEAN_MOTION_DOT>-.205E-4</MEAN_MOTION_DOT><MEAN_MOTION_DDOT>0</MEAN_MOTION_DDOT></tleParameters></data></segment></body></omm>
<omm id="CCSDS_OMM_VERS" version="2.0">
<header><CREATION_DATE/><ORIGINATOR/></header><body><segment><metadata><OBJECT_NAME>ONEWEB-0123</OBJECT_NAME><OBJECT_ID>2020-100M</OBJECT_ID><CENTER_NAME>EARTH</CENTER_NAME><REF_FRAME>TEME</REF_FRAME><TIME_SYSTEM>UTC</TIME_SYSTEM><MEAN_ELEMENT_THEORY>SGP4</MEAN_ELEMENT_THEORY></metadata><data><meanElements><EPOCH>2023-11-10T03:22:59.370816</EPOCH><MEAN_MOTION>13.12444757</MEAN_MOTION><ECCENTRICITY>.0001507</ECCENTRICITY><INCLINATION>87.9035</INCLINATION><RA_OF_ASC_NODE>179.6139</RA_OF_ASC_NODE><ARG_OF_PERICENTER>78.1794</ARG_OF_PERICENTER><MEAN_ANOMALY>281.9503</MEAN_ANOMALY></meanElements><tleParameters><EPHEMERIS_TYPE>0</EPHEMERIS_TYPE><CLASSIFICATION_TYPE>U</CLASSIFICATION_TYPE><NORAD_CAT_ID>47269</NORAD_CAT_ID><ELEMENT_SET_NO>999</ELEMENT_SET_NO><REV_AT_EPOCH>14007</REV_AT_EPOCH><BSTAR>.28086E-3</BSTAR><MEAN_MOTION_DOT>.114E-5</MEAN_MOTION_DOT><MEAN_MOTION_DDOT>0</MEAN_MOTION_DDOT></tleParameters></data></segment></body></omm>
<omm id="CCSDS_OMM_VERS" version="2.0">
<header><CREATION_DATE/><ORIGINATOR/></header><body><segment><metadata><OBJECT_NAME>ONEWEB-0124</OBJECT_NAME><OBJECT_ID>2020-100N</OBJECT_ID><CENTER_NAME>EARTH</CENTER_NAME><REF_FRAME>TEME</REF_FRAME><TIME_SYSTEM>UTC</TIME_SYSTEM><MEAN_ELEMENT_THEORY>SGP4</MEAN_ELEMENT_THEORY></metadata><data><meanElements><EPOCH>2023-11-10T03:04:41.533536</EPOCH><MEAN_MOTION>13.12442418</MEAN_MOTION><ECCENTRICITY>.0001476</ECCENTRICITY><INCLINATION>87.9032</INCLINATION><RA_OF_ASC_NODE>179.6117</RA_OF_ASC_NODE><ARG_OF_PERICENTER>66.5901</ARG_OF_PERICENTER><MEAN_ANOMALY>293.5383</MEAN_ANOMALY></meanElements><tleParameters><EPHEMERIS_TYPE>0</EPHEMERIS_TYPE><CLASSIFICATION_TYPE>U</CLASSIFICATION_TYPE><NORAD_CAT_ID>47270</NORAD_CAT_ID><ELEMENT_SET_NO>999</ELEMENT_SET_NO><REV_AT_EPOCH>13995</REV_AT_EPOCH><BSTAR>-.69841E-3</BSTAR><MEAN_MOTION_DOT>-.239E-5</MEAN_MOTION_DOT><MEAN_MOTION_DDOT>0</MEAN_MOTION_DDOT></tleParameters></data></segment></body></omm>
<omm id="CCSDS_OMM_VERS" version="2.0">
<header><CREATION_DATE/><ORIGINATOR/></header><body><segment><metadata><OBJECT_NAME>ONEWEB-0125</OBJECT_NAME><OBJECT_ID>2020-100P</OBJECT_ID><CENTER_NAME>EARTH</CENTER_NAME><REF_FRAME>TEME</REF_FRAME><TIME_SYSTEM>UTC</TIME_SYSTEM><MEAN_ELEMENT_THEORY>SGP4</MEAN_ELEMENT_THEORY></metadata><data><meanElements><EPOCH>2023-11-09T17:22:14.004480</EPOCH><MEAN_MOTION>13.12443320</MEAN_MOTION><ECCENTRICITY>.0001942</ECCENTRICITY><INCLINATION>87.8974</INCLINATION><RA_OF_ASC_NODE>179.6670</RA_OF_ASC_NODE><ARG_OF_PERICENTER>75.8442</ARG_OF_PERICENTER><MEAN_ANOMALY>284.2902</MEAN_ANOMALY></meanElements><tleParameters><EPHEMERIS_TYPE>0</EPHEMERIS_TYPE><CLASSIFICATION_TYPE>U</CLASSIFICATION_TYPE><NORAD_CAT_ID>47271</NORAD_CAT_ID><ELEMENT_SET_NO>999</ELEMENT_SET_NO><REV_AT_EPOCH>13996</REV_AT_EPOCH><BSTAR>-.29739E-3</BSTAR><MEAN_MOTION_DOT>-.94E-6</MEAN_MOTION_DOT><MEAN_MOTION_DDOT>0</MEAN_MOTION_DDOT></tleParameters></data></segment></body></omm>

</ndm>
